0 WESTFORD NEEDLES
1 02431U 63014AC  13293.90966220  .00000080  00000-0  30101-1 0  9350
2 02431 087.4131 256.5988 0572069 258.5867 095.0232 08.68395587524729
0 WESTFORD NEEDLES
1 02431U 63014AC  13293.90966220  .00000080  00000-0  30101-1 0  9372
2 02431 087.4131 256.5988 0572069 258.5867 095.0232 08.68395587524729
